start=new Date('2023-02-05T00:00:00.000Z').valueOf();
sats=[{"DECAY_DATE":null,"REF_FRAME":"TEME","PERIAPSIS":"546.414","INCLINATION":"53.0538","ARG_OF_PERICENTER":"96.5009","MEAN_MOTION":"15.06404334","TLE_LINE2":"2 45366  53.0538 194.1096 0001136  96.5009 263.6109 15.06404334159596","EPOCH":"2023-02-04T20:46:42.360384","OBJECT_NAME":"STARLINK-1262","SEMIMAJOR_AXIS":"6925.335","SITE":"AFETR","MEAN_MOTION_DOT":"0.00001016","COUNTRY_CODE":"US","FILE":"3772514","MEAN_ANOMALY":"263.6109","ECCENTRICITY":"0.00011360","OBJECT_TYPE":"PAYLOAD","MEAN_MOTION_DDOT":"0.0000000000000","TLE_LINE1":"1 45366U 20019G   23035.86576806  .00001016  00000-0  87055-4 0  9992","GP_ID":"224438615","RA_OF_ASC_NODE":"194.1096","NORAD_CAT_ID":"45366","CLASSIFICATION_TYPE":"U","ELEMENT_SET_NO":"999","EPHEMERIS_TYPE":"0","LAUNCH_DATE":"2020-03-18","APOAPSIS":"547.987","BSTAR":"0.00008705500000","TIME_SYSTEM":"UTC","MEAN_ELEMENT_THEORY":"SGP4","RCS_SIZE":"LARGE","OBJECT_ID":"2020-019G","PERIOD":"95.592","CENTER_NAME":"EARTH","REV_AT_EPOCH":"15959"},{"BSTAR":"0.00012118000000","TIME_SYSTEM":"UTC","MEAN_ELEMENT_THEORY":"SGP4","GP_ID":"224438351","TLE_LINE1":"1 45367U 20019H   23035.82153754  .00001524  00000-0  12118-3 0  9993","RA_OF_ASC_NODE":"194.3081","NORAD_CAT_ID":"45367","CLASSIFICATION_TYPE":"U","ELEMENT_SET_NO":"999","EPHEMERIS_TYPE":"0","LAUNCH_DATE":"2020-03-18","APOAPSIS":"547.923","CENTER_NAME":"EARTH","REV_AT_EPOCH":"15958","RCS_SIZE":"LARGE","OBJECT_ID":"2020-019H","PERIOD":"95.592","OBJECT_NAME":"STARLINK-1273","SEMIMAJOR_AXIS":"6925.339","SITE":"AFETR","PERIAPSIS":"546.485","DECAY_DATE":null,"REF_FRAME":"TEME","INCLINATION":"53.0539","ARG_OF_PERICENTER":"87.3307","TLE_LINE2":"2 45367  53.0539 194.3081 0001038  87.3307 272.7801 15.06403006159588","MEAN_MOTION":"15.06403006","EPOCH":"2023-02-04T19:43:00.843456","ECCENTRICITY":"0.00010380","OBJECT_TYPE":"PAYLOAD","MEAN_MOTION_DDOT":"0.0000000000000","COUNTRY_CODE":"US","MEAN_MOTION_DOT":"0.00001524","FILE":"3772514","MEAN_ANOMALY":"272.7801"},{"EPOCH":"2023-02-04T20:36:05.440320","MEAN_MOTION":"15.06401904","TLE_LINE2":"2 45368  53.0520 194.1463 0001366  91.0814 269.0331 15.06401904159593","DECAY_DATE":null,"PERIAPSIS":"546.262","INCLINATION":"53.0520","REF_FRAME":"TEME","ARG_OF_PERICENTER":"91.0814","SITE":"AFETR","OBJECT_NAME":"STARLINK-1276","SEMIMAJOR_AXIS":"6925.343","FILE":"3772514","MEAN_ANOMALY":"269.0331","COUNTRY_CODE":"US","MEAN_MOTION_DOT":"0.00001302","MEAN_MOTION_DDOT":"0.0000000000000","OBJECT_TYPE":"PAYLOAD","ECCENTRICITY":"0.00013660","LAUNCH_DATE":"2020-03-18","APOAPSIS":"548.154","EPHEMERIS_TYPE":"0","ELEMENT_SET_NO":"999","CLASSIFICATION_TYPE":"U","NORAD_CAT_ID":"45368","GP_ID":"224437619","TLE_LINE1":"1 45368U 20019J   23035.85839630  .00001302  00000-0  10625-3 0  9996","RA_OF_ASC_NODE":"194.1463","MEAN_ELEMENT_THEORY":"SGP4","BSTAR":"0.00010625000000","TIME_SYSTEM":"UTC","PERIOD":"95.592","RCS_SIZE":"LARGE","OBJECT_ID":"2020-019J","REV_AT_EPOCH":"15959","CENTER_NAME":"EARTH"},{"SEMIMAJOR_AXIS":"6925.349","OBJECT_NAME":"STARLINK-1277","SITE":"AFETR","DECAY_DATE":null,"PERIAPSIS":"546.334","INCLINATION":"53.0530","REF_FRAME":"TEME","ARG_OF_PERICENTER":"90.0734","MEAN_MOTION":"15.06399709","TLE_LINE2":"2 45369  53.0530 194.7376 0001271  90.0734 270.0401 15.06399709159576","EPOCH":"2023-02-04T17:23:39.279552","ECCENTRICITY":"0.00012710","OBJECT_TYPE":"PAYLOAD","MEAN_MOTION_DDOT":"0.0000000000000","COUNTRY_CODE":"US","MEAN_MOTION_DOT":"0.00000266","MEAN_ANOMALY":"270.0401","FILE":"3772514","TIME_SYSTEM":"UTC","BSTAR":"0.00003673100000","MEAN_ELEMENT_THEORY":"SGP4","TLE_LINE1":"1 45369U 20019K   23035.72476018  .00000266  00000-0  36731-4 0  9995","RA_OF_ASC_NODE":"194.7376","GP_ID":"224437868","NORAD_CAT_ID":"45369","ELEMENT_SET_NO":"999","CLASSIFICATION_TYPE":"U","EPHEMERIS_TYPE":"0","APOAPSIS":"548.095","LAUNCH_DATE":"2020-03-18","CENTER_NAME":"EARTH","REV_AT_EPOCH":"15957","OBJECT_ID":"2020-019K","RCS_SIZE":"LARGE","PERIOD":"95.592"},{"MEAN_ANOMALY":"267.0775","FILE":"3772514","MEAN_MOTION_DOT":"0.00000591","COUNTRY_CODE":"US","MEAN_MOTION_DDOT":"0.0000000000000","OBJECT_TYPE":"PAYLOAD","ECCENTRICITY":"0.00013620","EPOCH":"2023-02-04T18:44:37.728672","TLE_LINE2":"2 45370  53.0515 194.4924 0001362  93.0370 267.0775 15.06398715159584","MEAN_MOTION":"15.06398715","PERIAPSIS":"546.274","DECAY_DATE":null,"ARG_OF_PERICENTER":"93.0370","REF_FRAME":"TEME","INCLINATION":"53.0515","SITE":"AFETR","SEMIMAJOR_AXIS":"6925.352","OBJECT_NAME":"STARLINK-1281","PERIOD":"95.592","OBJECT_ID":"2020-019L","RCS_SIZE":"LARGE","REV_AT_EPOCH":"15958","CENTER_NAME":"EARTH","LAUNCH_DATE":"2020-03-18","APOAPSIS":"548.161","CLASSIFICATION_TYPE":"U","ELEMENT_SET_NO":"999","EPHEMERIS_TYPE":"0","NORAD_CAT_ID":"45370","TLE_LINE1":"1 45370U 20019L   23035.78099223  .00000591  00000-0  58565-4 0  9992","RA_OF_ASC_NODE":"194.4924","GP_ID":"224438116","MEAN_ELEMENT_THEORY":"SGP4","TIME_SYSTEM":"UTC","BSTAR":"0.00005856500000"},{"CENTER_NAME":"EARTH","REV_AT_EPOCH":"15958","PERIOD":"95.591","RCS_SIZE":"LARGE","OBJECT_ID":"2020-019M","MEAN_ELEMENT_THEORY":"SGP4","BSTAR":"0.00027855000000","TIME_SYSTEM":"UTC","APOAPSIS":"547.857","LAUNCH_DATE":"2020-03-18","CLASSIFICATION_TYPE":"U","ELEMENT_SET_NO":"999","EPHEMERIS_TYPE":"0","NORAD_CAT_ID":"45371","TLE_LINE1":"1 45371U 20019M   23035.80953697  .00003871  00000-0  27855-3 0  9991","GP_ID":"224438851","RA_OF_ASC_NODE":"194.3499","MEAN_MOTION_DDOT":"0.0000000000000","OBJECT_TYPE":"PAYLOAD","ECCENTRICITY":"0.00009800","FILE":"3772514","MEAN_ANOMALY":"266.4302","COUNTRY_CODE":"US","MEAN_MOTION_DOT":"0.00003871","SITE":"AFETR","OBJECT_NAME":"STARLINK-1287","SEMIMAJOR_AXIS":"6925.313","EPOCH":"2023-02-04T19:25:43.994208","MEAN_MOTION":"15.06411559","TLE_LINE2":"2 45371  53.0524 194.3499 0000980  93.6799 266.4302 15.06411559159588","DECAY_DATE":null,"PERIAPSIS":"546.499","INCLINATION":"53.0524","ARG_OF_PERICENTER":"93.6799","REF_FRAME":"TEME"},{"SITE":"AFETR","OBJECT_NAME":"STARLINK-1288","SEMIMAJOR_AXIS":"6925.346","EPOCH":"2023-02-04T19:48:19.423584","PERIAPSIS":"546.519","DECAY_DATE":null,"INCLINATION":"53.0545","REF_FRAME":"TEME","ARG_OF_PERICENTER":"94.4745","MEAN_MOTION":"15.06400822","TLE_LINE2":"2 45372  53.0545 194.2833 0001000  94.4745 265.6358 15.06400822159580","OBJECT_TYPE":"PAYLOAD","MEAN_MOTION_DDOT":"0.0000000000000","ECCENTRICITY":"0.00010000","MEAN_MOTION_DOT":"0.00000996","COUNTRY_CODE":"US","FILE":"3772514","MEAN_ANOMALY":"265.6358","BSTAR":"0.00008577000000","TIME_SYSTEM":"UTC","MEAN_ELEMENT_THEORY":"SGP4","EPHEMERIS_TYPE":"0","ELEMENT_SET_NO":"999","CLASSIFICATION_TYPE":"U","APOAPSIS":"547.904","LAUNCH_DATE":"2020-03-18","TLE_LINE1":"1 45372U 20019N   23035.82522481  .00000996  00000-0  85770-4 0  9993","GP_ID":"224437119","RA_OF_ASC_NODE":"194.2833","NORAD_CAT_ID":"45372","REV_AT_EPOCH":"15958","CENTER_NAME":"EARTH","RCS_SIZE":"LARGE","OBJECT_ID":"2020-019N","PERIOD":"95.592"},{"PERIOD":"95.592","OBJECT_ID":"2020-019P","RCS_SIZE":"LARGE","REV_AT_EPOCH":"15957","CENTER_NAME":"EARTH","LAUNCH_DATE":"2020-03-18","APOAPSIS":"548.030","CLASSIFICATION_TYPE":"U","ELEMENT_SET_NO":"999","EPHEMERIS_TYPE":"0","NORAD_CAT_ID":"45373","TLE_LINE1":"1 45373U 20019P   23035.74044764  .00001027  00000-0  87798-4 0  9996","GP_ID":"224437369","RA_OF_ASC_NODE":"194.6691","MEAN_ELEMENT_THEORY":"SGP4","TIME_SYSTEM":"UTC","BSTAR":"0.00008779800000","MEAN_ANOMALY":"259.9591","FILE":"3772514","COUNTRY_CODE":"US","MEAN_MOTION_DOT":"0.00001027","MEAN_MOTION_DDOT":"0.0000000000000","OBJECT_TYPE":"PAYLOAD","ECCENTRICITY":"0.00011690","EPOCH":"2023-02-04T17:46:14.676096","MEAN_MOTION":"15.06397878","TLE_LINE2":"2 45373  53.0544 194.6691 0001169 100.1530 259.9591 15.06397878159579","DECAY_DATE":null,"PERIAPSIS":"546.410","ARG_OF_PERICENTER":"100.1530","REF_FRAME":"TEME","INCLINATION":"53.0544","SITE":"AFETR","SEMIMAJOR_AXIS":"6925.355","OBJECT_NAME":"STARLINK-1295"},{"EPOCH":"2023-02-04T20:52:00.919776","ARG_OF_PERICENTER":"87.6259","DECAY_DATE":null,"PERIAPSIS":"546.303","REF_FRAME":"TEME","INCLINATION":"53.0526","MEAN_MOTION":"15.06402594","TLE_LINE2":"2 45374  53.0526 194.0889 0001304  87.6259 272.4880 15.06402594159596","SITE":"AFETR","OBJECT_NAME":"STARLINK-1300","SEMIMAJOR_AXIS":"6925.341","COUNTRY_CODE":"US","MEAN_MOTION_DOT":"0.00001378","FILE":"3772514","MEAN_ANOMALY":"272.4880","OBJECT_TYPE":"PAYLOAD","MEAN_MOTION_DDOT":"0.0000000000000","ECCENTRICITY":"0.00013040","CLASSIFICATION_TYPE":"U","ELEMENT_SET_NO":"999","EPHEMERIS_TYPE":"0","APOAPSIS":"548.109","LAUNCH_DATE":"2020-03-18","GP_ID":"224438616","TLE_LINE1":"1 45374U 20019Q   23035.86945509  .00001378  00000-0  11139-3 0  9991","RA_OF_ASC_NODE":"194.0889","NORAD_CAT_ID":"45374","BSTAR":"0.00011139000000","TIME_SYSTEM":"UTC","MEAN_ELEMENT_THEORY":"SGP4","RCS_SIZE":"LARGE","OBJECT_ID":"2020-019Q","PERIOD":"95.592","REV_AT_EPOCH":"15959","CENTER_NAME":"EARTH"},{"EPOCH":"2023-02-04T19:37:42.878496","PERIAPSIS":"546.214","DECAY_DATE":null,"INCLINATION":"53.0553","REF_FRAME":"TEME","ARG_OF_PERICENTER":"92.1140","TLE_LINE2":"2 45375  53.0553 194.3187 0001367  92.1140 268.0005 15.06417362159588","MEAN_MOTION":"15.06417362","SITE":"AFETR","OBJECT_NAME":"STARLINK-1302","SEMIMAJOR_AXIS":"6925.295","COUNTRY_CODE":"US","MEAN_MOTION_DOT":"0.00001911","FILE":"3772514","MEAN_ANOMALY":"268.0005","OBJECT_TYPE":"PAYLOAD","MEAN_MOTION_DDOT":"0.0000000000000","ECCENTRICITY":"0.00013670","ELEMENT_SET_NO":"999","CLASSIFICATION_TYPE":"U","EPHEMERIS_TYPE":"0","APOAPSIS":"548.107","LAUNCH_DATE":"2020-03-18","RA_OF_ASC_NODE":"194.3187","TLE_LINE1":"1 45375U 20019R   23035.81785739  .00001911  00000-0  14709-3 0  9993","GP_ID":"224438352","NORAD_CAT_ID":"45375","BSTAR":"0.00014709000000","TIME_SYSTEM":"UTC","MEAN_ELEMENT_THEORY":"SGP4","RCS_SIZE":"LARGE","OBJECT_ID":"2020-019R","PERIOD":"95.591","REV_AT_EPOCH":"15958","CENTER_NAME":"EARTH"}];
